ONEWEB-0588             
1 55153U 23004P   24124.56002389  .00000055  00000+0  10664-3 0  9993
2 55153  87.9123 129.7079 0002542  81.1376 279.0044 13.18685115 67609
ONEWEB-0598             
1 55154U 23004Q   24123.60263212  .00000492  00000+0  13526-2 0  9996
2 55154  87.8995 175.3735 0002843 103.9844 256.1600 13.11416754 64244
ONEWEB-0599             
1 55155U 23004R   24124.09618439 -.00000049  00000+0 -15991-3 0  9995
2 55155  87.9192 160.1064 0002162  99.1382 260.9994 13.17647554 65418
ONEWEB-0614             
1 55156U 23004S   24124.20813899  .00000505  00000+0  13884-2 0  9999
2 55156  87.9000 175.2570 0001956  86.1682 273.9669 13.11414232 64281
ONEWEB-0616             
1 55157U 23004T   24124.51857730  .00000057  00000+0  11475-3 0  9993
2 55157  87.9187 160.0334 0001852 130.1299 229.9995 13.17647091 65682
ONEWEB-0617             
1 55158U 23004U   24123.58640043  .00000439  00000+0  12037-2 0  9995
2 55158  87.8995 175.3771 0002274  85.7405 274.3983 13.11418341 64202
ONEWEB-0618             
1 55159U 23004V   24124.50636324  .00000292  00000+0  11265-3 0  9996
2 55159  86.9028 109.1853 0015690  72.2014 288.0889 14.26808098 68973
ONEWEB-0619             
1 55160U 23004W   24124.55022596  .00000066  00000+0  13656-3 0  9998
2 55160  87.9187 160.0034 0001523 100.5217 259.6086 13.17648488 65580
